start=new Date('2021-11-26T00:00:00.000Z').valueOf();
sats=[{"TIME_SYSTEM":"UTC","NORAD_CAT_ID":"47360","EPOCH":"2021-11-25T16:09:55.839744","MEAN_ELEMENT_THEORY":"SGP4","LAUNCH_DATE":"2021-01-20","CLASSIFICATION_TYPE":"U","GP_ID":"190492895","PERIOD":"95.593","INCLINATION":"53.0545","OBJECT_ID":"2021-005M","OBJECT_TYPE":"PAYLOAD","MEAN_MOTION":"15.06390457","MEAN_ANOMALY":"290.8913","CENTER_NAME":"EARTH","SITE":"AFETR","SEMIMAJOR_AXIS":"6925.378","APOAPSIS":"548.660","EPHEMERIS_TYPE":"0","COUNTRY_CODE":"US","PERIAPSIS":"545.825","TLE_LINE1":"1 47360U 21005M   21329.67356296  .00001727  00000-0  13485-3 0  9990","MEAN_MOTION_DDOT":"0.0000000000000","TLE_LINE2":"2 47360  53.0545 212.2557 0002047  69.2295 290.8913 15.06390457 47658","RA_OF_ASC_NODE":"212.2557","RCS_SIZE":"LARGE","ELEMENT_SET_NO":"999","DECAY_DATE":null,"REV_AT_EPOCH":"4765","MEAN_MOTION_DOT":"0.00001727","FILE":"3224126","BSTAR":"0.00013485000000","ARG_OF_PERICENTER":"69.2295","ECCENTRICITY":"0.00020470","REF_FRAME":"TEME","OBJECT_NAME":"STARLINK-2070"},{"OBJECT_TYPE":"PAYLOAD","OBJECT_ID":"2021-005N","CENTER_NAME":"EARTH","MEAN_MOTION":"15.06406992","MEAN_ANOMALY":"285.5728","EPOCH":"2021-11-25T09:33:49.478976","MEAN_ELEMENT_THEORY":"SGP4","LAUNCH_DATE":"2021-01-20","TIME_SYSTEM":"UTC","NORAD_CAT_ID":"47361","GP_ID":"190465157","PERIOD":"95.592","INCLINATION":"53.0552","CLASSIFICATION_TYPE":"U","COUNTRY_CODE":"US","EPHEMERIS_TYPE":"0","PERIAPSIS":"546.032","SITE":"AFETR","SEMIMAJOR_AXIS":"6925.327","APOAPSIS":"548.352","DECAY_DATE":null,"MEAN_MOTION_DOT":"0.00000236","REV_AT_EPOCH":"4753","TLE_LINE1":"1 47361U 21005N   21329.39848934  .00000236  00000-0  34738-4 0  9994","TLE_LINE2":"2 47361  53.0552 218.4699 0001675  74.5446 285.5728 15.06406992 47539","ELEMENT_SET_NO":"999","RCS_SIZE":"LARGE","RA_OF_ASC_NODE":"218.4699","MEAN_MOTION_DDOT":"0.0000000000000","ECCENTRICITY":"0.00016750","OBJECT_NAME":"STARLINK-2071","REF_FRAME":"TEME","BSTAR":"0.00003473800000","FILE":"3223911","ARG_OF_PERICENTER":"74.5446"},{"ECCENTRICITY":"0.00018800","OBJECT_NAME":"STARLINK-2076","REF_FRAME":"TEME","BSTAR":"0.00014942000000","FILE":"3223911","ARG_OF_PERICENTER":"70.5799","DECAY_DATE":null,"REV_AT_EPOCH":"4713","MEAN_MOTION_DOT":"0.00001945","TLE_LINE1":"1 47362U 21005P   21329.50998588  .00001945  00000-0  14942-3 0  9991","RCS_SIZE":"LARGE","RA_OF_ASC_NODE":"247.9895","ELEMENT_SET_NO":"999","TLE_LINE2":"2 47362  53.0544 247.9895 0001880  70.5799 289.5393 15.06399336 47132","MEAN_MOTION_DDOT":"0.0000000000000","COUNTRY_CODE":"US","EPHEMERIS_TYPE":"0","PERIAPSIS":"545.914","APOAPSIS":"548.518","SITE":"AFETR","SEMIMAJOR_AXIS":"6925.351","OBJECT_ID":"2021-005P","OBJECT_TYPE":"PAYLOAD","CENTER_NAME":"EARTH","MEAN_ANOMALY":"289.5393","MEAN_MOTION":"15.06399336","MEAN_ELEMENT_THEORY":"SGP4","LAUNCH_DATE":"2021-01-20","EPOCH":"2021-11-25T12:14:22.780032","NORAD_CAT_ID":"47362","TIME_SYSTEM":"UTC","INCLINATION":"53.0544","PERIOD":"95.592","GP_ID":"190465409","CLASSIFICATION_TYPE":"U"},{"FILE":"3223911","BSTAR":"0.00000127680000","ARG_OF_PERICENTER":"65.1597","ECCENTRICITY":"0.00020200","REF_FRAME":"TEME","OBJECT_NAME":"STARLINK-2077","TLE_LINE1":"1 47363U 21005Q   21329.51367401 -.00000263  00000-0  12768-5 0  9996","MEAN_MOTION_DDOT":"0.0000000000000","TLE_LINE2":"2 47363  53.0542 247.9663 0002020  65.1597 294.9602 15.06389987 47131","ELEMENT_SET_NO":"999","RCS_SIZE":"LARGE","RA_OF_ASC_NODE":"247.9663","DECAY_DATE":null,"REV_AT_EPOCH":"4713","MEAN_MOTION_DOT":"-0.00000263","SITE":"AFETR","SEMIMAJOR_AXIS":"6925.379","APOAPSIS":"548.643","EPHEMERIS_TYPE":"0","COUNTRY_CODE":"US","PERIAPSIS":"545.845","TIME_SYSTEM":"UTC","NORAD_CAT_ID":"47363","EPOCH":"2021-11-25T12:19:41.434464","LAUNCH_DATE":"2021-01-20","MEAN_ELEMENT_THEORY":"SGP4","CLASSIFICATION_TYPE":"U","GP_ID":"190465660","PERIOD":"95.593","INCLINATION":"53.0542","OBJECT_TYPE":"PAYLOAD","OBJECT_ID":"2021-005Q","MEAN_MOTION":"15.06389987","MEAN_ANOMALY":"294.9602","CENTER_NAME":"EARTH"},{"OBJECT_NAME":"STARLINK-2079","REF_FRAME":"TEME","ECCENTRICITY":"0.00009840","ARG_OF_PERICENTER":"46.1193","BSTAR":"0.00713070000000","FILE":"3223911","MEAN_MOTION_DOT":"0.01435732","REV_AT_EPOCH":"4720","DECAY_DATE":null,"TLE_LINE2":"2 47364  53.0533 240.9459 0000984  46.1193 313.9909 15.78624478 47202","ELEMENT_SET_NO":"999","RCS_SIZE":"LARGE","RA_OF_ASC_NODE":"240.9459","MEAN_MOTION_DDOT":"0.0000000000000","TLE_LINE1":"1 47364U 21005R   21329.24185748  .01435732  00000-0  71307-2 0  9993","PERIAPSIS":"333.679","COUNTRY_CODE":"US","EPHEMERIS_TYPE":"0","SITE":"AFETR","SEMIMAJOR_AXIS":"6712.474","APOAPSIS":"335.000","CENTER_NAME":"EARTH","MEAN_MOTION":"15.78624478","MEAN_ANOMALY":"313.9909","OBJECT_TYPE":"PAYLOAD","OBJECT_ID":"2021-005R","GP_ID":"190464408","PERIOD":"91.219","INCLINATION":"53.0533","CLASSIFICATION_TYPE":"U","EPOCH":"2021-11-25T05:48:16.486272","LAUNCH_DATE":"2021-01-20","MEAN_ELEMENT_THEORY":"SGP4","TIME_SYSTEM":"UTC","NORAD_CAT_ID":"47364"},{"APOAPSIS":"355.408","SEMIMAJOR_AXIS":"6727.843","SITE":"AFETR","COUNTRY_CODE":"US","EPHEMERIS_TYPE":"0","PERIAPSIS":"344.007","MEAN_ELEMENT_THEORY":"SGP4","LAUNCH_DATE":"2021-01-20","EPOCH":"2021-11-25T17:34:52.595616","NORAD_CAT_ID":"47365","TIME_SYSTEM":"UTC","INCLINATION":"53.0460","PERIOD":"91.532","GP_ID":"190492647","CLASSIFICATION_TYPE":"U","OBJECT_TYPE":"PAYLOAD","OBJECT_ID":"2021-005S","CENTER_NAME":"EARTH","MEAN_ANOMALY":"47.5990","MEAN_MOTION":"15.73218386","BSTAR":"0.00002058600000","FILE":"3224126","ARG_OF_PERICENTER":"312.4311","ECCENTRICITY":"0.00084730","OBJECT_NAME":"STARLINK-2080","REF_FRAME":"TEME","TLE_LINE1":"1 47365U 21005S   21329.73255319  .00002265  00000-0  20586-4 0  9995","ELEMENT_SET_NO":"999","RCS_SIZE":"LARGE","RA_OF_ASC_NODE":"127.2614","TLE_LINE2":"2 47365  53.0460 127.2614 0008473 312.4311  47.5990 15.73218386 48847","MEAN_MOTION_DDOT":"0.0000000000000","DECAY_DATE":null,"REV_AT_EPOCH":"4884","MEAN_MOTION_DOT":"0.00002265"},{"REF_FRAME":"TEME","OBJECT_NAME":"STARLINK-2081","ECCENTRICITY":"0.00020160","ARG_OF_PERICENTER":"63.6860","FILE":"3224126","BSTAR":"0.00003466300000","MEAN_MOTION_DOT":"0.00000235","REV_AT_EPOCH":"4717","DECAY_DATE":null,"MEAN_MOTION_DDOT":"0.0000000000000","RCS_SIZE":"LARGE","RA_OF_ASC_NODE":"246.6560","ELEMENT_SET_NO":"999","TLE_LINE2":"2 47366  53.0565 246.6560 0002016  63.6860 296.4336 15.06397761 47176","TLE_LINE1":"1 47366U 21005T   21329.80486205  .00000235  00000-0  34663-4 0  9990","PERIAPSIS":"545.824","EPHEMERIS_TYPE":"0","COUNTRY_CODE":"US","APOAPSIS":"548.617","SITE":"AFETR","SEMIMAJOR_AXIS":"6925.355","MEAN_ANOMALY":"296.4336","MEAN_MOTION":"15.06397761","CENTER_NAME":"EARTH","OBJECT_TYPE":"PAYLOAD","OBJECT_ID":"2021-005T","CLASSIFICATION_TYPE":"U","INCLINATION":"53.0565","GP_ID":"190493897","PERIOD":"95.592","NORAD_CAT_ID":"47366","TIME_SYSTEM":"UTC","MEAN_ELEMENT_THEORY":"SGP4","LAUNCH_DATE":"2021-01-20","EPOCH":"2021-11-25T19:19:00.081120"},{"ARG_OF_PERICENTER":"68.8828","BSTAR":"0.00002091400000","FILE":"3224126","OBJECT_NAME":"STARLINK-2082","REF_FRAME":"TEME","ECCENTRICITY":"0.00017600","TLE_LINE2":"2 47367  53.0548 246.8542 0001760  68.8828 291.2349 15.06394407 47177","RCS_SIZE":"LARGE","ELEMENT_SET_NO":"999","RA_OF_ASC_NODE":"246.8542","MEAN_MOTION_DDOT":"0.0000000000000","TLE_LINE1":"1 47367U 21005U   21329.76432519  .00000030  00000-0  20914-4 0  9992","REV_AT_EPOCH":"4717","MEAN_MOTION_DOT":"0.00000030","DECAY_DATE":null,"SEMIMAJOR_AXIS":"6925.366","SITE":"AFETR","APOAPSIS":"548.450","PERIAPSIS":"546.012","COUNTRY_CODE":"US","EPHEMERIS_TYPE":"0","GP_ID":"190494148","PERIOD":"95.592","INCLINATION":"53.0548","CLASSIFICATION_TYPE":"U","EPOCH":"2021-11-25T18:20:37.696416","MEAN_ELEMENT_THEORY":"SGP4","LAUNCH_DATE":"2021-01-20","TIME_SYSTEM":"UTC","NORAD_CAT_ID":"47367","CENTER_NAME":"EARTH","MEAN_MOTION":"15.06394407","MEAN_ANOMALY":"291.2349","OBJECT_ID":"2021-005U","OBJECT_TYPE":"PAYLOAD"},{"INCLINATION":"53.0541","GP_ID":"190492896","PERIOD":"95.593","CLASSIFICATION_TYPE":"U","MEAN_ELEMENT_THEORY":"SGP4","LAUNCH_DATE":"2021-01-20","EPOCH":"2021-11-25T19:45:33.139008","NORAD_CAT_ID":"47368","TIME_SYSTEM":"UTC","CENTER_NAME":"EARTH","MEAN_ANOMALY":"296.4877","MEAN_MOTION":"15.06391268","OBJECT_ID":"2021-005V","OBJECT_TYPE":"PAYLOAD","APOAPSIS":"548.632","SITE":"AFETR","SEMIMAJOR_AXIS":"6925.375","PERIAPSIS":"545.849","COUNTRY_CODE":"US","EPHEMERIS_TYPE":"0","ELEMENT_SET_NO":"999","RCS_SIZE":"LARGE","RA_OF_ASC_NODE":"246.5782","TLE_LINE2":"2 47368  53.0541 246.5782 0002009  63.6318 296.4877 15.06391268 47184","MEAN_MOTION_DDOT":"0.0000000000000","TLE_LINE1":"1 47368U 21005V   21329.82330022  .00001869  00000-0  14436-3 0  9998","REV_AT_EPOCH":"4718","MEAN_MOTION_DOT":"0.00001869","DECAY_DATE":null,"ARG_OF_PERICENTER":"63.6318","BSTAR":"0.00014436000000","FILE":"3224126","OBJECT_NAME":"STARLINK-2084","REF_FRAME":"TEME","ECCENTRICITY":"0.00020090"},{"PERIAPSIS":"545.894","COUNTRY_CODE":"US","EPHEMERIS_TYPE":"0","APOAPSIS":"548.581","SEMIMAJOR_AXIS":"6925.373","SITE":"AFETR","CENTER_NAME":"EARTH","MEAN_ANOMALY":"296.4301","MEAN_MOTION":"15.06392120","OBJECT_ID":"2021-005W","OBJECT_TYPE":"PAYLOAD","INCLINATION":"53.0547","GP_ID":"190465158","PERIOD":"95.593","CLASSIFICATION_TYPE":"U","MEAN_ELEMENT_THEORY":"SGP4","LAUNCH_DATE":"2021-01-20","EPOCH":"2021-11-25T10:20:16.737792","NORAD_CAT_ID":"47369","TIME_SYSTEM":"UTC","OBJECT_NAME":"STARLINK-2085","REF_FRAME":"TEME","ECCENTRICITY":"0.00019400","ARG_OF_PERICENTER":"63.6887","BSTAR":"0.00000628200000","FILE":"3223911","REV_AT_EPOCH":"4740","MEAN_MOTION_DOT":"-0.00000188","DECAY_DATE":null,"RCS_SIZE":"LARGE","ELEMENT_SET_NO":"999","RA_OF_ASC_NODE":"228.3470","TLE_LINE2":"2 47369  53.0547 228.3470 0001940  63.6887 296.4301 15.06392120 47402","MEAN_MOTION_DDOT":"0.0000000000000","TLE_LINE1":"1 47369U 21005W   21329.43074928 -.00000188  00000-0  62820-5 0  9992"}];
